ONEWEB-0340             
1 49206U 21083W   25003.44036738  .00000147  00000+0  34103-3 0  9995
2 49206  87.9102  80.8465 0001945 100.8267 259.3084 13.18686663160156
ONEWEB-0341             
1 49207U 21083X   25003.60002484  .00000169  00000+0  39705-3 0  9992
2 49207  87.9103  80.8263 0002395 113.1509 246.9876 13.18687773160198
ONEWEB-0342             
1 49208U 21083Y   25003.50788407  .00000079  00000+0  16238-3 0  9994
2 49208  87.9235  19.8389 0001721  93.1717 266.9613 13.20772091166868
ONEWEB-0343             
1 49209U 21083Z   25003.44352885  .00000093  00000+0  20240-3 0  9999
2 49209  87.9093  80.8524 0002207 120.5261 239.6089 13.18687195160224
ONEWEB-0344             
1 49210U 21083AA  25003.58240961 -.00000153  00000+0 -45468-3 0  9995
2 49210  87.8918  65.5832 0002266 105.1469 254.9911 13.13470998161374
ONEWEB-0345             
1 49211U 21083AB  25003.59986022  .00000244  00000+0  63300-3 0  9996
2 49211  87.8912  65.5491 0002363 105.1739 254.9652 13.13473936161386
ONEWEB-0346             
1 49212U 21083AC  25003.60477321  .00000114  00000+0  25676-3 0  9996
2 49212  87.9101  80.8341 0002072  94.2671 265.8698 13.18686801161475
ONEWEB-0348             
1 49213U 21083AD  25003.49841535  .00000042  00000+0  71880-4 0  9995
2 49213  87.9251  19.8316 0002474  87.9095 272.2321 13.20771642166898
